[{"OBJECT_NAME":"FENGYUN 1C DEB","OBJECT_ID":"1999-025BZG","EPOCH":"2026-03-04T04:02:05.629344","MEAN_MOTION":14.40876734,"ECCENTRICITY":0.00502047,"INCLINATION":100.7173,"RA_OF_ASC_NODE":320.5731,"ARG_OF_PERICENTER":155.8077,"MEAN_ANOMALY":204.5477,"EPHEMERIS_TYPE":0,"CLASSIFICATION_TYPE":"U","NORAD_CAT_ID":31565,"ELEMENT_SET_NO":999,"REV_AT_EPOCH":65525,"BSTAR":0.0037249573,"MEAN_MOTION_DOT":0.00012083,"MEAN_MOTION_DDOT":0},{"OBJECT_NAME":"FENGYUN 1C DEB","OBJECT_ID":"1999-025BZH","EPOCH":"2026-03-06T03:42:57.140928","MEAN_MOTION":14.38570089,"ECCENTRICITY":0.00261485,"INCLINATION":98.9403,"RA_OF_ASC_NODE":132.485,"ARG_OF_PERICENTER":113.694,"MEAN_ANOMALY":274.6069,"EPHEMERIS_TYPE":0,"CLASSIFICATION_TYPE":"U","NORAD_CAT_ID":31566,"ELEMENT_SET_NO":999,"REV_AT_EPOCH":97590,"BSTAR":0.0017789309,"MEAN_MOTION_DOT":5.421e-5,"MEAN_MOTION_DDOT":0},{"OBJECT_NAME":"FENGYUN 1C DEB","OBJECT_ID":"1999-025BZJ","EPOCH":"2026-03-06T04:18:17.183520","MEAN_MOTION":13.9358245,"ECCENTRICITY":0.01845749,"INCLINATION":102.3146,"RA_OF_ASC_NODE":324.2251,"ARG_OF_PERICENTER":107.5656,"MEAN_ANOMALY":254.5749,"EPHEMERIS_TYPE":0,"CLASSIFICATION_TYPE":"U","NORAD_CAT_ID":31567,"ELEMENT_SET_NO":999,"REV_AT_EPOCH":68571,"BSTAR":0.0027599502,"MEAN_MOTION_DOT":4.105e-5,"MEAN_MOTION_DDOT":0},{"OBJECT_NAME":"FENGYUN 1C DEB","OBJECT_ID":"1999-025BZK","EPOCH":"2026-02-27T11:03:09.225216","MEAN_MOTION":14.04209024,"ECCENTRICITY":0.01287097,"INCLINATION":102.0506,"RA_OF_ASC_NODE":330.2622,"ARG_OF_PERICENTER":293.0734,"MEAN_ANOMALY":65.6896,"EPHEMERIS_TYPE":0,"CLASSIFICATION_TYPE":"U","NORAD_CAT_ID":31568,"ELEMENT_SET_NO":999,"REV_AT_EPOCH":95656,"BSTAR":0.0028060281,"MEAN_MOTION_DOT":4.727e-5,"MEAN_MOTION_DDOT":0},{"OBJECT_NAME":"FENGYUN 1C DEB","OBJECT_ID":"1999-025BZL","EPOCH":"2026-03-01T00:47:24.742464","MEAN_MOTION":13.96308676,"ECCENTRICITY":0.01745748,"INCLINATION":102.6187,"RA_OF_ASC_NODE":250.8778,"ARG_OF_PERICENTER":180.8274,"MEAN_ANOMALY":331.2897,"EPHEMERIS_TYPE":0,"CLASSIFICATION_TYPE":"U","NORAD_CAT_ID":31569,"ELEMENT_SET_NO":999,"REV_AT_EPOCH":94771,"BSTAR":0.0028663317,"MEAN_MOTION_DOT":4.42e-5,"MEAN_MOTION_DDOT":0},{"OBJECT_NAME":"FENGYUN 1C DEB","OBJECT_ID":"1999-025BZM","EPOCH":"2026-03-01T23:19:49.611072","MEAN_MOTION":14.26694182,"ECCENTRICITY":0.01413177,"INCLINATION":102.5662,"RA_OF_ASC_NODE":138.9267,"ARG_OF_PERICENTER":27.5771,"MEAN_ANOMALY":333.2802,"EPHEMERIS_TYPE":0,"CLASSIFICATION_TYPE":"U","NORAD_CAT_ID":31570,"ELEMENT_SET_NO":999,"REV_AT_EPOCH":64496,"BSTAR":0.0025543347,"MEAN_MOTION_DOT":6.796e-5,"MEAN_MOTION_DDOT":0},{"OBJECT_NAME":"FENGYUN 1C DEB","OBJECT_ID":"1999-025BZN","EPOCH":"2026-03-03T04:13:23.729376","MEAN_MOTION":14.87557859,"ECCENTRICITY":0.01425437,"INCLINATION":98.383,"RA_OF_ASC_NODE":189.7124,"ARG_OF_PERICENTER":136.8849,"MEAN_ANOMALY":224.3635,"EPHEMERIS_TYPE":0,"CLASSIFICATION_TYPE":"U","NORAD_CAT_ID":31608,"ELEMENT_SET_NO":999,"REV_AT_EPOCH":99828,"BSTAR":0.0013394908,"MEAN_MOTION_DOT":0.00014627,"MEAN_MOTION_DDOT":0},{"OBJECT_NAME":"FENGYUN 1C DEB","OBJECT_ID":"1999-025BZP","EPOCH":"2026-03-03T13:29:01.756896","MEAN_MOTION":14.16460559,"ECCENTRICITY":0.00942135,"INCLINATION":99.2065,"RA_OF_ASC_NODE":98.8421,"ARG_OF_PERICENTER":94.2072,"MEAN_ANOMALY":60.7073,"EPHEMERIS_TYPE":0,"CLASSIFICATION_TYPE":"U","NORAD_CAT_ID":31609,"ELEMENT_SET_NO":999,"REV_AT_EPOCH":67228,"BSTAR":0.0021486127,"MEAN_MOTION_DOT":4.419e-5,"MEAN_MOTION_DDOT":0},{"OBJECT_NAME":"FENGYUN 1C DEB","OBJECT_ID":"1999-025BZU","EPOCH":"2026-03-06T05:58:46.311168","MEAN_MOTION":15.25632322,"ECCENTRICITY":0.00197096,"INCLINATION":98.9626,"RA_OF_ASC_NODE":350.0389,"ARG_OF_PERICENTER":83.9551,"MEAN_ANOMALY":276.3928,"EPHEMERIS_TYPE":0,"CLASSIFICATION_TYPE":"U","NORAD_CAT_ID":31614,"ELEMENT_SET_NO":999,"REV_AT_EPOCH":97689,"BSTAR":0.013374365,"MEAN_MOTION_DOT":0.00358186,"MEAN_MOTION_DDOT":0},{"OBJECT_NAME":"FENGYUN 1C DEB","OBJECT_ID":"1999-025BZV","EPOCH":"2026-03-06T02:40:53.264640","MEAN_MOTION":14.37426135,"ECCENTRICITY":0.01611622,"INCLINATION":99.1377,"RA_OF_ASC_NODE":126.6255,"ARG_OF_PERICENTER":75.9802,"MEAN_ANOMALY":285.9241,"EPHEMERIS_TYPE":0,"CLASSIFICATION_TYPE":"U","NORAD_CAT_ID":31615,"ELEMENT_SET_NO":999,"REV_AT_EPOCH":66475,"BSTAR":0.0032725276,"MEAN_MOTION_DOT":0.00011332,"MEAN_MOTION_DDOT":0},{"OBJECT_NAME":"FENGYUN 1C DEB","OBJECT_ID":"1999-025BZY","EPOCH":"2026-02-28T15:46:24.356640","MEAN_MOTION":14.21228309,"ECCENTRICITY":0.01579241,"INCLINATION":99.4551,"RA_OF_ASC_NODE":213.0076,"ARG_OF_PERICENTER":106.0055,"MEAN_ANOMALY":255.8579,"EPHEMERIS_TYPE":0,"CLASSIFICATION_TYPE":"U","NORAD_CAT_ID":31618,"ELEMENT_SET_NO":999,"REV_AT_EPOCH":71371,"BSTAR":0.00039375871,"MEAN_MOTION_DOT":9.23e-6,"MEAN_MOTION_DDOT":0},{"OBJECT_NAME":"FENGYUN 1C DEB","OBJECT_ID":"1999-025CAA","EPOCH":"2026-03-02T01:30:20.784384","MEAN_MOTION":14.38491355,"ECCENTRICITY":0.00229194,"INCLINATION":98.8803,"RA_OF_ASC_NODE":152.8092,"ARG_OF_PERICENTER":167.469,"MEAN_ANOMALY":192.707,"EPHEMERIS_TYPE":0,"CLASSIFICATION_TYPE":"U","NORAD_CAT_ID":31620,"ELEMENT_SET_NO":999,"REV_AT_EPOCH":66984,"BSTAR":0.0024876607,"MEAN_MOTION_DOT":7.583e-5,"MEAN_MOTION_DDOT":0},{"OBJECT_NAME":"FENGYUN 1C DEB","OBJECT_ID":"1999-025CAC","EPOCH":"2026-03-06T06:05:23.562816","MEAN_MOTION":14.38282724,"ECCENTRICITY":0.00168265,"INCLINATION":98.811,"RA_OF_ASC_NODE":167.1368,"ARG_OF_PERICENTER":104.0571,"MEAN_ANOMALY":283.806,"EPHEMERIS_TYPE":0,"CLASSIFICATION_TYPE":"U","NORAD_CAT_ID":31622,"ELEMENT_SET_NO":999,"REV_AT_EPOCH":96972,"BSTAR":0.0020459149,"MEAN_MOTION_DOT":6.192e-5,"MEAN_MOTION_DDOT":0},{"OBJECT_NAME":"FENGYUN 1C DEB","OBJECT_ID":"1999-025CAD","EPOCH":"2026-02-23T20:08:21.789312","MEAN_MOTION":13.82678221,"ECCENTRICITY":0.01943272,"INCLINATION":97.6275,"RA_OF_ASC_NODE":257.6544,"ARG_OF_PERICENTER":161.74,"MEAN_ANOMALY":199.0865,"EPHEMERIS_TYPE":0,"CLASSIFICATION_TYPE":"U","NORAD_CAT_ID":31623,"ELEMENT_SET_NO":999,"REV_AT_EPOCH":58930,"BSTAR":0.00033728029,"MEAN_MOTION_DOT":3.93e-6,"MEAN_MOTION_DDOT":0}]
