FENGYUN 1C DEB          
1 31565U 99025BZG 26063.16812071  .00012083  00000+0  37250-2 0  9990
2 31565 100.7173 320.5731 0050204 155.8077 204.5477 14.40876734655252
FENGYUN 1C DEB          
1 31566U 99025BZH 26065.15482802  .00005421  00000+0  17789-2 0  9990
2 31566  98.9403 132.4850 0026148 113.6940 274.6069 14.38570089975903
FENGYUN 1C DEB          
1 31567U 99025BZJ 26065.17936555  .00004105  00000+0  27600-2 0  9993
2 31567 102.3146 324.2251 0184574 107.5656 254.5749 13.93582450685712
FENGYUN 1C DEB          
1 31568U 99025BZK 26058.46052344  .00004727  00000+0  28060-2 0  9994
2 31568 102.0506 330.2622 0128709 293.0734  65.6896 14.04209024956569
FENGYUN 1C DEB          
1 31569U 99025BZL 26060.03292526  .00004420  00000+0  28663-2 0  9998
2 31569 102.6187 250.8778 0174574 180.8274 331.2897 13.96308676947716
FENGYUN 1C DEB          
1 31570U 99025BZM 26060.97210198  .00006796  00000+0  25543-2 0  9990
2 31570 102.5662 138.9267 0141317  27.5771 333.2802 14.26694182644965
FENGYUN 1C DEB          
1 31608U 99025BZN 26062.17596909  .00014627  00000+0  13395-2 0  9997
2 31608  98.3830 189.7124 0142543 136.8849 224.3635 14.87557859998281
FENGYUN 1C DEB          
1 31609U 99025BZP 26062.56182589  .00004419  00000+0  21486-2 0  9994
2 31609  99.2065  98.8421 0094213  94.2072  60.7073 14.16460559672286
FENGYUN 1C DEB          
1 31614U 99025BZU 26065.24914712  .00358186  00000+0  13374-1 0  9998
2 31614  98.9626 350.0389 0019709  83.9551 276.3928 15.25632322976899
FENGYUN 1C DEB          
1 31615U 99025BZV 26065.11172760  .00011332  00000+0  32725-2 0  9995
2 31615  99.1377 126.6255 0161162  75.9802 285.9241 14.37426135664754
FENGYUN 1C DEB          
1 31618U 99025BZY 26059.65722635  .00000923  00000+0  39376-3 0  9996
2 31618  99.4551 213.0076 0157924 106.0055 255.8579 14.21228309713710
FENGYUN 1C DEB          
1 31620U 99025CAA 26061.06274056  .00007583  00000+0  24877-2 0  9994
2 31620  98.8803 152.8092 0022919 167.4690 192.7070 14.38491355669845
FENGYUN 1C DEB          
1 31622U 99025CAC 26065.25374494  .00006192  00000+0  20459-2 0  9995
2 31622  98.8110 167.1368 0016826 104.0571 283.8060 14.38282724969727
FENGYUN 1C DEB          
1 31623U 99025CAD 26054.83914108  .00000393  00000+0  33728-3 0  9991
2 31623  97.6275 257.6544 0194327 161.7400 199.0865 13.82678221589304
